{
  "type": "FeatureCollection",
  "features": [
    {
      "type": "Feature",
      "properties": {
        "norad_id": 32212,
        "name": "FENGYUN 1C DEB",
        "group": "fengyun-1c-debris",
        "lat": -76.42162396953904,
        "lon": 140.2823779751115,
        "alt_km": 822.0638596034933,
        "timestamp": "2025-12-23T22:42:33.270752+00:00",
        "meta_object_name": "FENGYUN 1C DEB",
        "meta_object_id": "1999-025CVJ",
        "meta_epoch": "2025-12-22T12:21:50.056416",
        "meta_mean_motion": 14.40349995,
        "meta_eccentricity": 0.01376106,
        "meta_inclination": 99.5728,
        "meta_ra_of_asc_node": 94.3588,
        "meta_arg_of_pericenter": 50.2821,
        "meta_mean_anomaly": 14.4282,
        "meta_ephemeris_type": 0,
        "meta_classification_type": "U",
        "meta_norad_cat_id": 32212,
        "meta_element_set_no": 999,
        "meta_rev_at_epoch": 96202,
        "meta_bstar": 0.00040041333,
        "meta_mean_motion_dot": 1.362e-05,
        "meta_mean_motion_ddot": 0,
        "tle_line1": "1 32212U 99025CVJ 25356.51516269  .00001362  00000+0  40041-3 0  9994",
        "tle_line2": "2 32212  99.5728  94.3588 0137610  50.2821  14.4282 14.40349995962023"
      },
      "geometry": {
        "type": "Point",
        "coordinates": [
          140.2823779751115,
          -76.42162396953904
        ]
      }
    },
    {
      "type": "Feature",
      "properties": {
        "norad_id": 32214,
        "name": "FENGYUN 1C DEB",
        "group": "fengyun-1c-debris",
        "lat": -80.13335389957875,
        "lon": 136.9610054065024,
        "alt_km": 961.1430707330628,
        "timestamp": "2025-12-23T22:42:33.270763+00:00",
        "meta_object_name": "FENGYUN 1C DEB",
        "meta_object_id": "1999-025CVL",
        "meta_epoch": "2025-12-22T20:22:27.043968",
        "meta_mean_motion": 13.9064086,
        "meta_eccentricity": 0.01879555,
        "meta_inclination": 99.0438,
        "meta_ra_of_asc_node": 22.1987,
        "meta_arg_of_pericenter": 11.6235,
        "meta_mean_anomaly": 166.0933,
        "meta_ephemeris_type": 0,
        "meta_classification_type": "U",
        "meta_norad_cat_id": 32214,
        "meta_element_set_no": 999,
        "meta_rev_at_epoch": 62562,
        "meta_bstar": 0.003908588,
        "meta_mean_motion_dot": 5.582e-05,
        "meta_mean_motion_ddot": 0,
        "tle_line1": "1 32214U 99025CVL 25356.84892412  .00005582  00000+0  39086-2 0  9993",
        "tle_line2": "2 32214  99.0438  22.1987 0187955  11.6235 166.0933 13.90640860625625"
      },
      "geometry": {
        "type": "Point",
        "coordinates": [
          136.9610054065024,
          -80.13335389957875
        ]
      }
    },
    {
      "type": "Feature",
      "properties": {
        "norad_id": 32218,
        "name": "FENGYUN 1C DEB",
        "group": "fengyun-1c-debris",
        "lat": -53.434228087062465,
        "lon": 0.35424065629292684,
        "alt_km": 756.2950308748032,
        "timestamp": "2025-12-23T22:42:33.270772+00:00",
        "meta_object_name": "FENGYUN 1C DEB",
        "meta_object_id": "1999-025CVQ",
        "meta_epoch": "2025-12-22T19:19:04.454688",
        "meta_mean_motion": 14.5555236,
        "meta_eccentricity": 0.00630124,
        "meta_inclination": 98.8113,
        "meta_ra_of_asc_node": 191.2214,
        "meta_arg_of_pericenter": 37.2215,
        "meta_mean_anomaly": 340.3531,
        "meta_ephemeris_type": 0,
        "meta_classification_type": "U",
        "meta_norad_cat_id": 32218,
        "meta_element_set_no": 999,
        "meta_rev_at_epoch": 96379,
        "meta_bstar": 0.00078398974,
        "meta_mean_motion_dot": 3.456e-05,
        "meta_mean_motion_ddot": 0,
        "tle_line1": "1 32218U 99025CVQ 25356.80491267  .00003456  00000+0  78399-3 0  9995",
        "tle_line2": "2 32218  98.8113 191.2214 0063012  37.2215 340.3531 14.55552360963799"
      },
      "geometry": {
        "type": "Point",
        "coordinates": [
          0.35424065629292684,
          -53.434228087062465
        ]
      }
    },
    {
      "type": "Feature",
      "properties": {
        "norad_id": 32221,
        "name": "FENGYUN 1C DEB",
        "group": "fengyun-1c-debris",
        "lat": -70.57499405396644,
        "lon": -57.0867611262387,
        "alt_km": 784.9208892489814,
        "timestamp": "2025-12-23T22:42:33.270785+00:00",
        "meta_object_name": "FENGYUN 1C DEB",
        "meta_object_id": "1999-025CVT",
        "meta_epoch": "2025-12-22T15:56:06.454176",
        "meta_mean_motion": 14.58733387,
        "meta_eccentricity": 0.01471175,
        "meta_inclination": 98.5663,
        "meta_ra_of_asc_node": 146.8961,
        "meta_arg_of_pericenter": 115.3214,
        "meta_mean_anomaly": 246.3306,
        "meta_ephemeris_type": 0,
        "meta_classification_type": "U",
        "meta_norad_cat_id": 32221,
        "meta_element_set_no": 999,
        "meta_rev_at_epoch": 97342,
        "meta_bstar": 0.00030266237,
        "meta_mean_motion_dot": 1.585e-05,
        "meta_mean_motion_ddot": 0,
        "tle_line1": "1 32221U 99025CVT 25356.66396359  .00001585  00000+0  30266-3 0  9991",
        "tle_line2": "2 32221  98.5663 146.8961 0147117 115.3214 246.3306 14.58733387973420"
      },
      "geometry": {
        "type": "Point",
        "coordinates": [
          -57.0867611262387,
          -70.57499405396644
        ]
      }
    },
    {
      "type": "Feature",
      "properties": {
        "norad_id": 32223,
        "name": "FENGYUN 1C DEB",
        "group": "fengyun-1c-debris",
        "lat": 56.77852544197678,
        "lon": 63.26726070688318,
        "alt_km": 839.3467875552305,
        "timestamp": "2025-12-23T22:42:33.270797+00:00",
        "meta_object_name": "FENGYUN 1C DEB",
        "meta_object_id": "1999-025CVV",
        "meta_epoch": "2025-12-13T23:18:00.552672",
        "meta_mean_motion": 14.20905079,
        "meta_eccentricity": 0.00468432,
        "meta_inclination": 98.839,
        "meta_ra_of_asc_node": 67.0353,
        "meta_arg_of_pericenter": 313.8611,
        "meta_mean_anomaly": 224.3875,
        "meta_ephemeris_type": 0,
        "meta_classification_type": "U",
        "meta_norad_cat_id": 32223,
        "meta_element_set_no": 999,
        "meta_rev_at_epoch": 64241,
        "meta_bstar": 0.0016444924,
        "meta_mean_motion_dot": 3.554e-05,
        "meta_mean_motion_ddot": 0,
        "tle_line1": "1 32223U 99025CVV 25347.97083973  .00003554  00000+0  16445-2 0  9992",
        "tle_line2": "2 32223  98.8390  67.0353 0046843 313.8611 224.3875 14.20905079642418"
      },
      "geometry": {
        "type": "Point",
        "coordinates": [
          63.26726070688318,
          56.77852544197678
        ]
      }
    },
    {
      "type": "Feature",
      "properties": {
        "norad_id": 32224,
        "name": "FENGYUN 1C DEB",
        "group": "fengyun-1c-debris",
        "lat": -23.502114632254415,
        "lon": -46.66502844045809,
        "alt_km": 754.0151758955935,
        "timestamp": "2025-12-23T22:42:33.270807+00:00",
        "meta_object_name": "FENGYUN 1C DEB",
        "meta_object_id": "1999-025CVW",
        "meta_epoch": "2025-12-22T03:16:52.028256",
        "meta_mean_motion": 14.34039895,
        "meta_eccentricity": 0.00769239,
        "meta_inclination": 98.9856,
        "meta_ra_of_asc_node": 307.5101,
        "meta_arg_of_pericenter": 39.3734,
        "meta_mean_anomaly": 321.3006,
        "meta_ephemeris_type": 0,
        "meta_classification_type": "U",
        "meta_norad_cat_id": 32224,
        "meta_element_set_no": 999,
        "meta_rev_at_epoch": 95858,
        "meta_bstar": 0.00031769868,
        "meta_mean_motion_dot": 8.7e-06,
        "meta_mean_motion_ddot": 0,
        "tle_line1": "1 32224U 99025CVW 25356.13671329  .00000870  00000+0  31770-3 0  9996",
        "tle_line2": "2 32224  98.9856 307.5101 0076923  39.3734 321.3006 14.34039895958589"
      },
      "geometry": {
        "type": "Point",
        "coordinates": [
          -46.66502844045809,
          -23.502114632254415
        ]
      }
    },
    {
      "type": "Feature",
      "properties": {
        "norad_id": 32225,
        "name": "FENGYUN 1C DEB",
        "group": "fengyun-1c-debris",
        "lat": 12.656845763676628,
        "lon": -131.1573722321447,
        "alt_km": 798.4138918501276,
        "timestamp": "2025-12-23T22:42:33.270817+00:00",
        "meta_object_name": "FENGYUN 1C DEB",
        "meta_object_id": "1999-025CVX",
        "meta_epoch": "2025-12-21T22:20:15.589536",
        "meta_mean_motion": 14.13052966,
        "meta_eccentricity": 0.00721095,
        "meta_inclination": 99.091,
        "meta_ra_of_asc_node": 44.7359,
        "meta_arg_of_pericenter": 180.6743,
        "meta_mean_anomaly": 179.4342,
        "meta_ephemeris_type": 0,
        "meta_classification_type": "U",
        "meta_norad_cat_id": 32225,
        "meta_element_set_no": 999,
        "meta_rev_at_epoch": 68246,
        "meta_bstar": 0.00021617663,
        "meta_mean_motion_dot": 3.68e-06,
        "meta_mean_motion_ddot": 0,
        "tle_line1": "1 32225U 99025CVX 25355.93073599  .00000368  00000+0  21618-3 0  9991",
        "tle_line2": "2 32225  99.0910  44.7359 0072109 180.6743 179.4342 14.13052966682467"
      },
      "geometry": {
        "type": "Point",
        "coordinates": [
          -131.1573722321447,
          12.656845763676628
        ]
      }
    }
  ]
}